[
    {
        "Altitude(m)": 607895.7833340705,
        "Argument of Periapsis(deg)": 0.0,
        "Eccentricity": 0.0,
        "Inclination(deg)": 60.0,
        "Latitude(deg)": 40.99824736077943,
        "Longitude(deg)": -104.91131720007071,
        "Mean Anomaly(deg)": 130.90910000000005,
        "RAAN(deg)": 205.0,
        "Satellite Name": "Test1 910",
        "Satellite Number": 910,
        "Semi-Major Axis(m)": 6980739.136638005,
        "Time(s)": 0
    },
    {
        "Altitude(m)": 607795.0961247697,
        "Argument of Periapsis(deg)": 0.00010418945913296404,
        "Eccentricity": 0.0,
        "Inclination(deg)": 60.0,
        "Latitude(deg)": 40.53057124025301,
        "Longitude(deg)": -104.41472465435434,
        "Mean Anomaly(deg)": 131.5292061454618,
        "RAAN(deg)": 204.99957995086024,
        "Satellite Name": "Test1 910",
        "Satellite Number": 910,
        "Semi-Major Axis(m)": 6980739.136638005,
        "Time(s)": 10
    },
    {
        "Altitude(m)": 607694.5844802427,
        "Argument of Periapsis(deg)": 0.0002083789182659281,
        "Eccentricity": 0.0,
        "Inclination(deg)": 60.0,
        "Latitude(deg)": 40.060385181020486,
        "Longitude(deg)": -103.92557294206814,
        "Mean Anomaly(deg)": 132.14931229092366,
        "RAAN(deg)": 204.99915990172053,
        "Satellite Name": "Test1 910",
        "Satellite Number": 910,
        "Semi-Major Axis(m)": 6980739.136638005,
        "Time(s)": 20
    },
    {
        "Altitude(m)": 607594.3120992573,
        "Argument of Periapsis(deg)": 0.00031256837739889213,
        "Eccentricity": 0.0,
        "Inclination(deg)": 60.0,
        "Latitude(deg)": 39.587762756400544,
        "Longitude(deg)": -103.4436764582437,
        "Mean Anomaly(deg)": 132.76941843638545,
        "RAAN(deg)": 204.99873985258077,
        "Satellite Name": "Test1 910",
        "Satellite Number": 910,
        "Semi-Major Axis(m)": 6980739.136638005,
        "Time(s)": 30
    },
    {
        "Altitude(m)": 607494.3427809016,
        "Argument of Periapsis(deg)": 0.0004167578365318562,
        "Eccentricity": 0.0,
        "Inclination(deg)": 60.0,
        "Latitude(deg)": 39.11277529956659,
        "Longitude(deg)": -102.96885263782518,
        "Mean Anomaly(deg)": 133.38952458184727,
        "RAAN(deg)": 204.99831980344103,
        "Satellite Name": "Test1 910",
        "Satellite Number": 910,
        "Semi-Major Axis(m)": 6980739.136638005,
        "Time(s)": 40
    },
    {
        "Altitude(m)": 607394.740392728,
        "Argument of Periapsis(deg)": 0.0005209472956648203,
        "Eccentricity": 0.0,
        "Inclination(deg)": 60.0,
        "Latitude(deg)": 38.635491976907296,
        "Longitude(deg)": -102.50092297611293,
        "Mean Anomaly(deg)": 134.00963072730914,
        "RAAN(deg)": 204.99789975430127,
        "Satellite Name": "Test1 910",
        "Satellite Number": 910,
        "Semi-Major Axis(m)": 6980739.136638005,
        "Time(s)": 50
    },
    {
        "Altitude(m)": 607295.5688387364,
        "Argument of Periapsis(deg)": 0.0006251367547977843,
        "Eccentricity": 0.0,
        "Inclination(deg)": 60.0,
        "Latitude(deg)": 38.15597985984659,
        "Longitude(deg)": -102.03971252551825,
        "Mean Anomaly(deg)": 134.62973687277096,
        "RAAN(deg)": 204.99747970516157,
        "Satellite Name": "Test1 910",
        "Satellite Number": 910,
        "Semi-Major Axis(m)": 6980739.136638005,
        "Time(s)": 60
    },
    {
        "Altitude(m)": 607196.8920273104,
        "Argument of Periapsis(deg)": 0.0007293262139307483,
        "Eccentricity": 0.0,
        "Inclination(deg)": 60.0,
        "Latitude(deg)": 37.67430399505573,
        "Longitude(deg)": -101.58504938263371,
        "Mean Anomaly(deg)": 135.2498430182328,
        "RAAN(deg)": 204.99705965602178,
        "Satellite Name": "Test1 910",
        "Satellite Number": 910,
        "Semi-Major Axis(m)": 6980739.136638005,
        "Time(s)": 70
    },
    {
        "Altitude(m)": 607098.7738390956,
        "Argument of Periapsis(deg)": 0.0008335156730637124,
        "Eccentricity": 0.0,
        "Inclination(deg)": 60.0,
        "Latitude(deg)": 37.1905274730059,
        "Longitude(deg)": -101.1367656795363,
        "Mean Anomaly(deg)": 135.86994916369466,
        "RAAN(deg)": 204.99663960688207,
        "Satellite Name": "Test1 910",
        "Satellite Number": 910,
        "Semi-Major Axis(m)": 6980739.136638005,
        "Time(s)": 80
    },
    {
        "Altitude(m)": 607001.2780948529,
        "Argument of Periapsis(deg)": 0.0009377051321966765,
        "Eccentricity": 0.0,
        "Inclination(deg)": 60.0,
        "Latitude(deg)": 36.704711494819875,
        "Longitude(deg)": -100.69469705454209,
        "Mean Anomaly(deg)": 136.4900553091565,
        "RAAN(deg)": 204.9962195577423,
        "Satellite Name": "Test1 910",
        "Satellite Number": 910,
        "Semi-Major Axis(m)": 6980739.136638005,
        "Time(s)": 90
    },
    {
        "Altitude(m)": 606904.4685232561,
        "Argument of Periapsis(deg)": 0.0010418945913296407,
        "Eccentricity": 0.0,
        "Inclination(deg)": 60.0,
        "Latitude(deg)": 36.216915437395684,
        "Longitude(deg)": -100.25868211616586,
        "Mean Anomaly(deg)": 137.11016145461832,
        "RAAN(deg)": 204.99579950860257,
        "Satellite Name": "Test1 910",
        "Satellite Number": 910,
        "Semi-Major Axis(m)": 6980739.136638005,
        "Time(s)": 100
    },
    {
        "Altitude(m)": 606808.4087287092,
        "Argument of Periapsis(deg)": 0.0011460840504626045,
        "Eccentricity": 0.0,
        "Inclination(deg)": 60.0,
        "Latitude(deg)": 35.727196916786426,
        "Longitude(deg)": -99.82856341396743,
        "Mean Anomaly(deg)": 137.73026760008014,
        "RAAN(deg)": 204.9953794594628,
        "Satellite Name": "Test1 910",
        "Satellite Number": 910,
        "Semi-Major Axis(m)": 6980739.136638005,
        "Time(s)": 110
    },
    {
        "Altitude(m)": 606713.1621591584,
        "Argument of Periapsis(deg)": 0.0012502735095955685,
        "Eccentricity": 0.0,
        "Inclination(deg)": 60.0,
        "Latitude(deg)": 35.23561184982539,
        "Longitude(deg)": -99.4041868912803,
        "Mean Anomaly(deg)": 138.35037374554196,
        "RAAN(deg)": 204.9949594103231,
        "Satellite Name": "Test1 910",
        "Satellite Number": 910,
        "Semi-Major Axis(m)": 6980739.136638005,
        "Time(s)": 120
    },
    {
        "Altitude(m)": 606618.7920739207,
        "Argument of Periapsis(deg)": 0.0013544629687285324,
        "Eccentricity": 0.0,
        "Inclination(deg)": 60.0,
        "Latitude(deg)": 34.74221451399869,
        "Longitude(deg)": -98.98540133337215,
        "Mean Anomaly(deg)": 138.97047989100378,
        "RAAN(deg)": 204.99453936118334,
        "Satellite Name": "Test1 910",
        "Satellite Number": 910,
        "Semi-Major Axis(m)": 6980739.136638005,
        "Time(s)": 130
    },
    {
        "Altitude(m)": 606525.3615115541,
        "Argument of Periapsis(deg)": 0.0014586524278614966,
        "Eccentricity": 0.0,
        "Inclination(deg)": 60.0,
        "Latitude(deg)": 34.2470576055717,
        "Longitude(deg)": -98.57205932452196,
        "Mean Anomaly(deg)": 139.59058603646565,
        "RAAN(deg)": 204.9941193120436,
        "Satellite Name": "Test1 910",
        "Satellite Number": 910,
        "Semi-Major Axis(m)": 6980739.136638005,
        "Time(s)": 140
    },
    {
        "Altitude(m)": 606432.9332577898,
        "Argument of Periapsis(deg)": 0.0015628418869944607,
        "Eccentricity": 0.0,
        "Inclination(deg)": 60.0,
        "Latitude(deg)": 33.750192295982195,
        "Longitude(deg)": -98.16401668883404,
        "Mean Anomaly(deg)": 140.21069218192744,
        "RAAN(deg)": 204.99369926290385,
        "Satellite Name": "Test1 910",
        "Satellite Number": 910,
        "Semi-Major Axis(m)": 6980739.136638005,
        "Time(s)": 150
    },
    {
        "Altitude(m)": 606341.5698135257,
        "Argument of Periapsis(deg)": 0.0016670313461274247,
        "Eccentricity": 0.0,
        "Inclination(deg)": 60.0,
        "Latitude(deg)": 33.25166828651792,
        "Longitude(deg)": -97.76113192816712,
        "Mean Anomaly(deg)": 140.8307983273893,
        "RAAN(deg)": 204.99327921376414,
        "Satellite Name": "Test1 910",
        "Satellite Number": 910,
        "Semi-Major Axis(m)": 6980739.136638005,
        "Time(s)": 160
    },
    {
        "Altitude(m)": 606251.3333628982,
        "Argument of Periapsis(deg)": 0.0017712208052603888,
        "Eccentricity": 0.0,
        "Inclination(deg)": 60.0,
        "Latitude(deg)": 32.751533861303706,
        "Longitude(deg)": -97.36326717051304,
        "Mean Anomaly(deg)": 141.45090447285114,
        "RAAN(deg)": 204.99285916462438,
        "Satellite Name": "Test1 910",
        "Satellite Number": 910,
        "Semi-Major Axis(m)": 6980739.136638005,
        "Time(s)": 170
    },
    {
        "Altitude(m)": 606162.2857414811,
        "Argument of Periapsis(deg)": 0.001875410264393353,
        "Eccentricity": 0.0,
        "Inclination(deg)": 60.0,
        "Latitude(deg)": 32.249835938622134,
        "Longitude(deg)": -96.97028760349804,
        "Mean Anomaly(deg)": 142.07101061831295,
        "RAAN(deg)": 204.99243911548464,
        "Satellite Name": "Test1 910",
        "Satellite Number": 910,
        "Semi-Major Axis(m)": 6980739.136638005,
        "Time(s)": 180
    },
    {
        "Altitude(m)": 606074.4884045549,
        "Argument of Periapsis(deg)": 0.0019795997235263173,
        "Eccentricity": 0.0,
        "Inclination(deg)": 60.0,
        "Latitude(deg)": 31.746620120599374,
        "Longitude(deg)": -96.58206090625536,
        "Mean Anomaly(deg)": 142.6911167637748,
        "RAAN(deg)": 204.99201906634488,
        "Satellite Name": "Test1 910",
        "Satellite Number": 910,
        "Semi-Major Axis(m)": 6980739.136638005,
        "Time(s)": 190
    }
]